[{"OBJECT_NAME":"STARLINK-11104 [DTC]","OBJECT_ID":"2024-091L","EPOCH":"2026-03-09T14:34:53.616864","MEAN_MOTION":15.69705938,"ECCENTRICITY":0.0001249,"INCLINATION":53.1593,"RA_OF_ASC_NODE":206.4307,"ARG_OF_PERICENTER":139.7831,"MEAN_ANOMALY":220.3279,"EPHEMERIS_TYPE":0,"CLASSIFICATION_TYPE":"U","NORAD_CAT_ID":59763,"ELEMENT_SET_NO":999,"REV_AT_EPOCH":10550,"BSTAR":3.4079e-6,"MEAN_MOTION_DOT":-1.76e-6,"MEAN_MOTION_DDOT":0},{"OBJECT_NAME":"ELECTRON R\/B","OBJECT_ID":"2026-043B","EPOCH":"2026-03-09T08:29:55.148928","MEAN_MOTION":15.95333192,"ECCENTRICITY":0.01708092,"INCLINATION":42.0141,"RA_OF_ASC_NODE":75.7245,"ARG_OF_PERICENTER":290.543,"MEAN_ANOMALY":67.7176,"EPHEMERIS_TYPE":0,"CLASSIFICATION_TYPE":"U","NORAD_CAT_ID":68099,"ELEMENT_SET_NO":999,"REV_AT_EPOCH":53,"BSTAR":0.0013683173,"MEAN_MOTION_DOT":0.02880529,"MEAN_MOTION_DDOT":7.631151e-6}]
